{
  "type": "FeatureCollection",
  "features": [
    {"type":"Feature","geometry":{"type":"Point","coordinates":[8.6631,50.1248]},"properties":{"id":"grueneburgpark","name":"Grüneburgpark","type":"Park","emoji":"🌳","area_m2":260000,"ndvi":0.72,"tree_cover_pct":55,"imperviousness_pct":8,"upgrade_priority_score":14,"quality_label":"Hohe Qualität","quality_color":"#16a34a","is_priority":false,"interventions":["🌸 Blühwiese anlegen"],"green_coverage_score":12,"tree_cover_score":8,"accessibility_score":5,"cooling_potential_score":18,"biodiversity_potential_score":22,"connectivity_score":18}},
    {"type":"Feature","geometry":{"type":"Point","coordinates":[8.6564,50.1226]},"properties":{"id":"palmengarten","name":"Palmengarten","type":"Park","emoji":"🌳","area_m2":220000,"ndvi":0.68,"tree_cover_pct":48,"imperviousness_pct":12,"upgrade_priority_score":18,"quality_label":"Hohe Qualität","quality_color":"#16a34a","is_priority":false,"interventions":["🌸 Blühwiese anlegen"],"green_coverage_score":14,"tree_cover_score":12,"accessibility_score":8,"cooling_potential_score":22,"biodiversity_potential_score":28,"connectivity_score":22}},
    {"type":"Feature","geometry":{"type":"Point","coordinates":[8.7112,50.1085]},"properties":{"id":"ostpark","name":"Ostpark","type":"Park","emoji":"🌳","area_m2":330000,"ndvi":0.65,"tree_cover_pct":42,"imperviousness_pct":15,"upgrade_priority_score":21,"quality_label":"Hohe Qualität","quality_color":"#16a34a","is_priority":false,"interventions":["🌳 Straßenbäume pflanzen","🌸 Blühwiese anlegen"],"green_coverage_score":16,"tree_cover_score":18,"accessibility_score":10,"cooling_potential_score":25,"biodiversity_potential_score":30,"connectivity_score":26}},
    {"type":"Feature","geometry":{"type":"Point","coordinates":[8.6220,50.1380]},"properties":{"id":"nidda_ufer","name":"Nidda-Uferpark","type":"Ufergrün","emoji":"🌊","area_m2":480000,"ndvi":0.75,"tree_cover_pct":38,"imperviousness_pct":20,"upgrade_priority_score":12,"quality_label":"Hohe Qualität","quality_color":"#16a34a","is_priority":false,"interventions":["🌳 Straßenbäume pflanzen"],"green_coverage_score":8,"tree_cover_score":14,"accessibility_score":5,"cooling_potential_score":10,"biodiversity_potential_score":18,"connectivity_score":14}},
    {"type":"Feature","geometry":{"type":"Point","coordinates":[8.6620,50.0680]},"properties":{"id":"stadtwald","name":"Stadtwald Frankfurt","type":"Stadtwald","emoji":"🌲","area_m2":4800000,"ndvi":0.88,"tree_cover_pct":92,"imperviousness_pct":2,"upgrade_priority_score":5,"quality_label":"Hohe Qualität","quality_color":"#16a34a","is_priority":false,"interventions":["🌸 Blühwiese anlegen"],"green_coverage_score":2,"tree_cover_score":2,"accessibility_score":4,"cooling_potential_score":4,"biodiversity_potential_score":8,"connectivity_score":10}},
    {"type":"Feature","geometry":{"type":"Point","coordinates":[8.7098,50.1292]},"properties":{"id":"guenthersburgpark","name":"Günthersburgpark","type":"Park","emoji":"🌳","area_m2":180000,"ndvi":0.62,"tree_cover_pct":52,"imperviousness_pct":10,"upgrade_priority_score":22,"quality_label":"Hohe Qualität","quality_color":"#16a34a","is_priority":false,"interventions":["🌸 Blühwiese anlegen"],"green_coverage_score":17,"tree_cover_score":10,"accessibility_score":8,"cooling_potential_score":22,"biodiversity_potential_score":30,"connectivity_score":28}},
    {"type":"Feature","geometry":{"type":"Point","coordinates":[8.7011,50.1155]},"properties":{"id":"bethmannpark","name":"Bethmannpark","type":"Park","emoji":"🌳","area_m2":46000,"ndvi":0.55,"tree_cover_pct":38,"imperviousness_pct":18,"upgrade_priority_score":38,"quality_label":"Gute Qualität","quality_color":"#65a30d","is_priority":false,"interventions":["🌳 Straßenbäume pflanzen","🌸 Blühwiese anlegen"],"green_coverage_score":32,"tree_cover_score":28,"accessibility_score":18,"cooling_potential_score":38,"biodiversity_potential_score":45,"connectivity_score":48}},
    {"type":"Feature","geometry":{"type":"Point","coordinates":[8.6701,50.1075]},"properties":{"id":"bahnhofsviertel_pocket","name":"Pocket Park Bahnhofsviertel","type":"Pocket Park","emoji":"🌱","area_m2":420,"ndvi":0.12,"tree_cover_pct":4,"imperviousness_pct":88,"upgrade_priority_score":85,"quality_label":"Kritischer Mangel","quality_color":"#dc2626","is_priority":true,"interventions":["⛏ Entsiegelung","🌳 Straßenbäume pflanzen","🌱 Pocket Park anlegen"],"green_coverage_score":92,"tree_cover_score":88,"accessibility_score":78,"cooling_potential_score":82,"biodiversity_potential_score":88,"connectivity_score":91}},
    {"type":"Feature","geometry":{"type":"Point","coordinates":[8.6882,50.1002]},"properties":{"id":"sachsenhausen_pocket","name":"Kleinstgrün Sachsenhausen","type":"Pocket Park","emoji":"🌱","area_m2":680,"ndvi":0.18,"tree_cover_pct":8,"imperviousness_pct":75,"upgrade_priority_score":74,"quality_label":"Aufwertungsbedarf","quality_color":"#ea580c","is_priority":true,"interventions":["⛏ Entsiegelung","🌳 Straßenbäume pflanzen"],"green_coverage_score":82,"tree_cover_score":76,"accessibility_score":58,"cooling_potential_score":72,"biodiversity_potential_score":78,"connectivity_score":80}},
    {"type":"Feature","geometry":{"type":"Point","coordinates":[8.6834,50.1322]},"properties":{"id":"nordend_potential","name":"Potenzialfläche Nordend","type":"Potenzialfläche","emoji":"⬛","area_m2":1200,"ndvi":0.05,"tree_cover_pct":0,"imperviousness_pct":95,"upgrade_priority_score":92,"quality_label":"Kritischer Mangel","quality_color":"#dc2626","is_priority":true,"interventions":["⛏ Entsiegelung","🌳 Straßenbäume pflanzen","🌱 Pocket Park anlegen","🏠 Dachbegrünung"],"green_coverage_score":95,"tree_cover_score":94,"accessibility_score":82,"cooling_potential_score":90,"biodiversity_potential_score":92,"connectivity_score":94}},
    {"type":"Feature","geometry":{"type":"Point","coordinates":[8.6820,50.1113]},"properties":{"id":"innenstadt_dach","name":"Dachbegrünung Innenstadt","type":"Dachbegrünung","emoji":"🏠","area_m2":800,"ndvi":0.22,"tree_cover_pct":0,"imperviousness_pct":90,"upgrade_priority_score":81,"quality_label":"Kritischer Mangel","quality_color":"#dc2626","is_priority":true,"interventions":["🏠 Dachbegrünung","🧱 Fassadenbegrünung","💧 Wasserelement / Brunnen"],"green_coverage_score":88,"tree_cover_score":90,"accessibility_score":72,"cooling_potential_score":80,"biodiversity_potential_score":85,"connectivity_score":88}},
    {"type":"Feature","geometry":{"type":"Point","coordinates":[8.6502,50.0882]},"properties":{"id":"riedwiese","name":"Riedwiese Niederrad","type":"Grünland / Wiese","emoji":"🌾","area_m2":85000,"ndvi":0.58,"tree_cover_pct":12,"imperviousness_pct":22,"upgrade_priority_score":31,"quality_label":"Gute Qualität","quality_color":"#65a30d","is_priority":false,"interventions":["🌳 Straßenbäume pflanzen","🌸 Blühwiese anlegen"],"green_coverage_score":25,"tree_cover_score":38,"accessibility_score":22,"cooling_potential_score":28,"biodiversity_potential_score":32,"connectivity_score":38}},
    {"type":"Feature","geometry":{"type":"Point","coordinates":[8.7221,50.1248]},"properties":{"id":"kleingartenanlagen_bornheim","name":"Kleingartenanlagen Bornheim","type":"Kleingarten","emoji":"🥕","area_m2":120000,"ndvi":0.60,"tree_cover_pct":28,"imperviousness_pct":30,"upgrade_priority_score":28,"quality_label":"Gute Qualität","quality_color":"#65a30d","is_priority":false,"interventions":["🌸 Blühwiese anlegen"],"green_coverage_score":22,"tree_cover_score":26,"accessibility_score":15,"cooling_potential_score":28,"biodiversity_potential_score":30,"connectivity_score":36}},
    {"type":"Feature","geometry":{"type":"Point","coordinates":[8.6790,50.1031]},"properties":{"id":"main_ufer","name":"Mainufer Frankfurt","type":"Ufergrün","emoji":"🌊","area_m2":320000,"ndvi":0.50,"tree_cover_pct":22,"imperviousness_pct":35,"upgrade_priority_score":42,"quality_label":"Ausbaufähig","quality_color":"#ca8a04","is_priority":false,"interventions":["🌳 Straßenbäume pflanzen","🌸 Blühwiese anlegen"],"green_coverage_score":35,"tree_cover_score":40,"accessibility_score":28,"cooling_potential_score":30,"biodiversity_potential_score":48,"connectivity_score":45}}
  ]
}
